start=new Date('2023-06-05T00:00:00.000Z').valueOf();
sats=[{"SITE":"AFETR","CENTER_NAME":"EARTH","NORAD_CAT_ID":"52002","REV_AT_EPOCH":"6858","PERIOD":"95.437","PERIAPSIS":"539.197","ELEMENT_SET_NO":"999","COUNTRY_CODE":"US","OBJECT_TYPE":"PAYLOAD","FILE":"3925173","OBJECT_NAME":"STARLINK-3668","TLE_LINE2":"2 52002  53.2152 229.1519 0000769  67.8734 292.2340 15.08845422 68583","GP_ID":"233219076","INCLINATION":"53.2152","DECAY_DATE":null,"RA_OF_ASC_NODE":"229.1519","REF_FRAME":"TEME","APOAPSIS":"540.261","TIME_SYSTEM":"UTC","TLE_LINE1":"1 52002U 22025AY  23155.59047372  .00003674  00000-0  24876-3 0  9993","EPHEMERIS_TYPE":"0","RCS_SIZE":"LARGE","MEAN_MOTION_DOT":"0.00003674","LAUNCH_DATE":"2022-03-09","MEAN_MOTION_DDOT":"0.0000000000000","ECCENTRICITY":"0.00007690","BSTAR":"0.00024876000000","MEAN_ELEMENT_THEORY":"SGP4","OBJECT_ID":"2022-025AY","MEAN_MOTION":"15.08845422","SEMIMAJOR_AXIS":"6917.864","EPOCH":"2023-06-04T14:10:16.929408","ARG_OF_PERICENTER":"67.8734","CLASSIFICATION_TYPE":"U","MEAN_ANOMALY":"292.2340"},{"CENTER_NAME":"EARTH","SITE":"AFETR","PERIOD":"95.437","REV_AT_EPOCH":"7008","NORAD_CAT_ID":"52003","OBJECT_NAME":"STARLINK-3654","FILE":"3925009","COUNTRY_CODE":"US","OBJECT_TYPE":"PAYLOAD","PERIAPSIS":"539.300","ELEMENT_SET_NO":"999","DECAY_DATE":null,"RA_OF_ASC_NODE":"229.4599","REF_FRAME":"TEME","INCLINATION":"53.2153","GP_ID":"233191379","TLE_LINE2":"2 52003  53.2153 229.4599 0000622  83.5511 276.5552 15.08844845 70088","TLE_LINE1":"1 52003U 22025AZ  23155.51959409  .00002935  00000-0  20238-3 0  9996","TIME_SYSTEM":"UTC","APOAPSIS":"540.161","RCS_SIZE":"LARGE","MEAN_MOTION_DOT":"0.00002935","EPHEMERIS_TYPE":"0","BSTAR":"0.00020238000000","ECCENTRICITY":"0.00006220","LAUNCH_DATE":"2022-03-09","MEAN_MOTION_DDOT":"0.0000000000000","ARG_OF_PERICENTER":"83.5511","MEAN_ANOMALY":"276.5552","CLASSIFICATION_TYPE":"U","MEAN_MOTION":"15.08844845","EPOCH":"2023-06-04T12:28:12.929376","SEMIMAJOR_AXIS":"6917.866","OBJECT_ID":"2022-025AZ","MEAN_ELEMENT_THEORY":"SGP4"},{"SITE":"AFETR","CENTER_NAME":"EARTH","NORAD_CAT_ID":"52088","REV_AT_EPOCH":"6989","PERIOD":"95.438","ELEMENT_SET_NO":"999","PERIAPSIS":"538.943","OBJECT_TYPE":"PAYLOAD","COUNTRY_CODE":"US","FILE":"3925173","OBJECT_NAME":"STARLINK-3537","TLE_LINE2":"2 52088  53.2167 187.8163 0001170  71.8986 288.2134 15.08837657 69891","GP_ID":"233218080","INCLINATION":"53.2167","REF_FRAME":"TEME","RA_OF_ASC_NODE":"187.8163","DECAY_DATE":null,"APOAPSIS":"540.562","TIME_SYSTEM":"UTC","TLE_LINE1":"1 52088U 22029A   23155.82868451  .00000545  00000-0  52350-4 0  9999","EPHEMERIS_TYPE":"0","MEAN_MOTION_DOT":"0.00000545","RCS_SIZE":"LARGE","MEAN_MOTION_DDOT":"0.0000000000000","LAUNCH_DATE":"2022-03-19","ECCENTRICITY":"0.00011700","BSTAR":"0.00005235000000","MEAN_ELEMENT_THEORY":"SGP4","OBJECT_ID":"2022-029A","SEMIMAJOR_AXIS":"6917.888","EPOCH":"2023-06-04T19:53:18.341664","MEAN_MOTION":"15.08837657","CLASSIFICATION_TYPE":"U","MEAN_ANOMALY":"288.2134","ARG_OF_PERICENTER":"71.8986"},{"CENTER_NAME":"EARTH","SITE":"AFETR","PERIOD":"95.437","REV_AT_EPOCH":"6833","NORAD_CAT_ID":"52089","OBJECT_NAME":"STARLINK-3722","FILE":"3925173","OBJECT_TYPE":"PAYLOAD","COUNTRY_CODE":"US","PERIAPSIS":"539.138","ELEMENT_SET_NO":"999","DECAY_DATE":null,"RA_OF_ASC_NODE":"298.5494","REF_FRAME":"TEME","INCLINATION":"53.2167","GP_ID":"233218330","TLE_LINE2":"2 52089  53.2167 298.5494 0000864 103.0151 257.0937 15.08843041 68337","TIME_SYSTEM":"UTC","TLE_LINE1":"1 52089U 22029B   23155.72291548  .00001538  00000-0  11469-3 0  9994","APOAPSIS":"540.334","RCS_SIZE":"LARGE","MEAN_MOTION_DOT":"0.00001538","EPHEMERIS_TYPE":"0","BSTAR":"0.00011469000000","ECCENTRICITY":"0.00008640","LAUNCH_DATE":"2022-03-19","MEAN_MOTION_DDOT":"0.0000000000000","ARG_OF_PERICENTER":"103.0151","CLASSIFICATION_TYPE":"U","MEAN_ANOMALY":"257.0937","MEAN_MOTION":"15.08843041","EPOCH":"2023-06-04T17:20:59.897472","SEMIMAJOR_AXIS":"6917.871","OBJECT_ID":"2022-029B","MEAN_ELEMENT_THEORY":"SGP4"},{"OBJECT_ID":"2022-029C","MEAN_ELEMENT_THEORY":"SGP4","ARG_OF_PERICENTER":"94.3309","MEAN_ANOMALY":"265.7795","CLASSIFICATION_TYPE":"U","MEAN_MOTION":"15.08843460","EPOCH":"2023-06-04T18:40:28.996032","SEMIMAJOR_AXIS":"6917.870","LAUNCH_DATE":"2022-03-19","MEAN_MOTION_DDOT":"0.0000000000000","ECCENTRICITY":"0.00009750","BSTAR":"0.00013353000000","RCS_SIZE":"LARGE","MEAN_MOTION_DOT":"0.00001838","EPHEMERIS_TYPE":"0","APOAPSIS":"540.409","TIME_SYSTEM":"UTC","TLE_LINE1":"1 52090U 22029C   23155.77811338  .00001838  00000-0  13353-3 0  9993","GP_ID":"233219082","TLE_LINE2":"2 52090  53.2168 298.3029 0000975  94.3309 265.7795 15.08843460 68346","DECAY_DATE":null,"REF_FRAME":"TEME","RA_OF_ASC_NODE":"298.3029","INCLINATION":"53.2168","OBJECT_TYPE":"PAYLOAD","COUNTRY_CODE":"US","PERIAPSIS":"539.060","ELEMENT_SET_NO":"999","OBJECT_NAME":"STARLINK-3712","FILE":"3925173","REV_AT_EPOCH":"6834","NORAD_CAT_ID":"52090","PERIOD":"95.437","CENTER_NAME":"EARTH","SITE":"AFETR"},{"APOAPSIS":"540.590","TLE_LINE1":"1 52091U 22029D   23155.78547131  .00024976  00000-0  15827-2 0  9997","TIME_SYSTEM":"UTC","RCS_SIZE":"LARGE","MEAN_MOTION_DOT":"0.00024976","EPHEMERIS_TYPE":"0","LAUNCH_DATE":"2022-03-19","MEAN_MOTION_DDOT":"0.0000000000000","ECCENTRICITY":"0.00011300","BSTAR":"0.00158270000000","OBJECT_ID":"2022-029D","MEAN_ELEMENT_THEORY":"SGP4","ARG_OF_PERICENTER":"56.8622","CLASSIFICATION_TYPE":"U","MEAN_ANOMALY":"303.2478","MEAN_MOTION":"15.08819466","EPOCH":"2023-06-04T18:51:04.721184","SEMIMAJOR_AXIS":"6917.943","CENTER_NAME":"EARTH","SITE":"AFETR","REV_AT_EPOCH":"6834","NORAD_CAT_ID":"52091","PERIOD":"95.439","COUNTRY_CODE":"US","OBJECT_TYPE":"PAYLOAD","PERIAPSIS":"539.026","ELEMENT_SET_NO":"999","OBJECT_NAME":"STARLINK-3713","FILE":"3925173","GP_ID":"233218832","TLE_LINE2":"2 52091  53.2163 298.2673 0001130  56.8622 303.2478 15.08819466 68346","DECAY_DATE":null,"RA_OF_ASC_NODE":"298.2673","REF_FRAME":"TEME","INCLINATION":"53.2163"},{"APOAPSIS":"540.369","TLE_LINE1":"1 52092U 22029E   23155.84803047  .00002276  00000-0  16097-3 0  9996","TIME_SYSTEM":"UTC","EPHEMERIS_TYPE":"0","MEAN_MOTION_DOT":"0.00002276","RCS_SIZE":"LARGE","MEAN_MOTION_DDOT":"0.0000000000000","LAUNCH_DATE":"2022-03-19","BSTAR":"0.00016097000000","ECCENTRICITY":"0.00009430","MEAN_ELEMENT_THEORY":"SGP4","OBJECT_ID":"2022-029E","SEMIMAJOR_AXIS":"6917.852","EPOCH":"2023-06-04T20:21:09.832608","MEAN_MOTION":"15.08849408","MEAN_ANOMALY":"264.1903","CLASSIFICATION_TYPE":"U","ARG_OF_PERICENTER":"95.9197","SITE":"AFETR","CENTER_NAME":"EARTH","NORAD_CAT_ID":"52092","REV_AT_EPOCH":"6835","PERIOD":"95.437","ELEMENT_SET_NO":"999","PERIAPSIS":"539.064","COUNTRY_CODE":"US","OBJECT_TYPE":"PAYLOAD","FILE":"3925173","OBJECT_NAME":"STARLINK-3716","TLE_LINE2":"2 52092  53.2170 297.9864 0000943  95.9197 264.1903 15.08849408 68353","GP_ID":"233217580","INCLINATION":"53.2170","REF_FRAME":"TEME","RA_OF_ASC_NODE":"297.9864","DECAY_DATE":null},{"LAUNCH_DATE":"2022-03-19","MEAN_MOTION_DDOT":"0.0000000000000","BSTAR":"0.00013196000000","ECCENTRICITY":"0.00009050","MEAN_ELEMENT_THEORY":"SGP4","OBJECT_ID":"2022-029F","MEAN_MOTION":"15.08844102","SEMIMAJOR_AXIS":"6917.868","EPOCH":"2023-06-04T18:31:15.729312","ARG_OF_PERICENTER":"96.5975","MEAN_ANOMALY":"263.5120","CLASSIFICATION_TYPE":"U","APOAPSIS":"540.359","TIME_SYSTEM":"UTC","TLE_LINE1":"1 52093U 22029F   23155.77170983  .00001813  00000-0  13196-3 0  9998","EPHEMERIS_TYPE":"0","RCS_SIZE":"LARGE","MEAN_MOTION_DOT":"0.00001813","PERIAPSIS":"539.107","ELEMENT_SET_NO":"999","OBJECT_TYPE":"PAYLOAD","COUNTRY_CODE":"US","FILE":"3925173","OBJECT_NAME":"STARLINK-3673","TLE_LINE2":"2 52093  53.2167 298.3413 0000905  96.5975 263.5120 15.08844102 68343","GP_ID":"233217830","INCLINATION":"53.2167","DECAY_DATE":null,"REF_FRAME":"TEME","RA_OF_ASC_NODE":"298.3413","SITE":"AFETR","CENTER_NAME":"EARTH","NORAD_CAT_ID":"52093","REV_AT_EPOCH":"6834","PERIOD":"95.437"},{"OBJECT_ID":"2022-029G","MEAN_ELEMENT_THEORY":"SGP4","ARG_OF_PERICENTER":"98.6431","MEAN_ANOMALY":"261.4666","CLASSIFICATION_TYPE":"U","MEAN_MOTION":"15.08849207","EPOCH":"2023-06-04T18:35:10.733856","SEMIMAJOR_AXIS":"6917.852","LAUNCH_DATE":"2022-03-19","MEAN_MOTION_DDOT":"0.0000000000000","BSTAR":"0.00016572000000","ECCENTRICITY":"0.00009260","RCS_SIZE":"LARGE","MEAN_MOTION_DOT":"0.00002351","EPHEMERIS_TYPE":"0","APOAPSIS":"540.358","TIME_SYSTEM":"UTC","TLE_LINE1":"1 52094U 22029G   23155.77442979  .00002351  00000-0  16572-3 0  9995","GP_ID":"233218582","TLE_LINE2":"2 52094  53.2170 298.3184 0000926  98.6431 261.4666 15.08849207 68349","DECAY_DATE":null,"REF_FRAME":"TEME","RA_OF_ASC_NODE":"298.3184","INCLINATION":"53.2170","COUNTRY_CODE":"US","OBJECT_TYPE":"PAYLOAD","PERIAPSIS":"539.077","ELEMENT_SET_NO":"999","OBJECT_NAME":"STARLINK-3714","FILE":"3925173","REV_AT_EPOCH":"6834","NORAD_CAT_ID":"52094","PERIOD":"95.437","CENTER_NAME":"EARTH","SITE":"AFETR"},{"NORAD_CAT_ID":"52095","REV_AT_EPOCH":"6835","PERIOD":"95.437","SITE":"AFETR","CENTER_NAME":"EARTH","TLE_LINE2":"2 52095  53.2173 298.0693 0000998  74.9485 285.1618 15.08845661 68351","GP_ID":"233219333","INCLINATION":"53.2173","DECAY_DATE":null,"RA_OF_ASC_NODE":"298.0693","REF_FRAME":"TEME","PERIAPSIS":"539.038","ELEMENT_SET_NO":"999","COUNTRY_CODE":"US","OBJECT_TYPE":"PAYLOAD","FILE":"3925173","OBJECT_NAME":"STARLINK-3701","EPHEMERIS_TYPE":"0","RCS_SIZE":"LARGE","MEAN_MOTION_DOT":"0.00002536","APOAPSIS":"540.418","TLE_LINE1":"1 52095U 22029H   23155.82963228  .00002536  00000-0  17736-3 0  9995","TIME_SYSTEM":"UTC","MEAN_ELEMENT_THEORY":"SGP4","OBJECT_ID":"2022-029H","MEAN_MOTION":"15.08845661","SEMIMAJOR_AXIS":"6917.863","EPOCH":"2023-06-04T19:54:40.228992","ARG_OF_PERICENTER":"74.9485","CLASSIFICATION_TYPE":"U","MEAN_ANOMALY":"285.1618","LAUNCH_DATE":"2022-03-19","MEAN_MOTION_DDOT":"0.0000000000000","ECCENTRICITY":"0.00009980","BSTAR":"0.00017736000000"}];
